OBJECT_NAME,OBJECT_ID,EPOCH,MEAN_MOTION,ECCENTRICITY,INCLINATION,RA_OF_ASC_NODE,ARG_OF_PERICENTER,MEAN_ANOMALY,EPHEMERIS_TYPE,CLASSIFICATION_TYPE,NORAD_CAT_ID,ELEMENT_SET_NO,REV_AT_EPOCH,BSTAR,MEAN_MOTION_DOT,MEAN_MOTION_DDOT
GALAXY 33 (G-33),2022-128A,2026-06-26T06:23:39.501888,1.00271340,.00020542,0.0139,4.2187,85.3458,147.7428,0,U,54026,999,1383,0,.9E-6,0
GALAXY 34 (G-34),2022-128B,2026-06-26T06:26:09.054240,1.00266230,.00020077,0.0121,28.0825,73.1427,140.7009,0,U,54027,999,1400,0,.71E-6,0
ASO-S,2022-129A,2026-06-26T06:44:17.678688,14.52065838,.00156294,98.2747,182.2309,67.1509,293.1335,0,U,54029,999,19674,.66200221E-4,.224E-5,0
COSMOS 2559 [GLONASS-K],2022-130A,2026-06-26T07:31:50.945376,2.13101803,.00127399,64.2654,314.2468,178.9915,181.0006,0,U,54031,999,2888,0,-.86E-6,0
ANGOSAT 2,2022-131A,2026-06-25T22:58:29.455968,1.00273515,.00007206,0.0307,103.2080,356.0057,182.4991,0,U,54033,999,1356,0,.146E-5,0
HJ-2E,2022-132A,2026-06-26T06:57:19.528704,15.22442562,.00193289,97.3795,181.5022,342.8270,17.2310,0,U,54035,999,20580,.39735021E-3,.9171E-4,0
YAOGAN-36 02A,2022-133A,2026-06-26T02:20:00.472416,15.23008885,.00266179,35.0071,63.7552,282.6692,77.1048,0,U,54042,999,20611,.41696906E-3,.10124E-3,0
YAOGAN-36 02B,2022-133B,2026-06-26T02:08:34.622304,15.32686607,.00030903,34.9976,53.4668,193.9026,166.1607,0,U,54043,999,20621,.42153412E-3,.13644E-3,0
YAOGAN-36 02C,2022-133D,2026-06-26T00:15:40.252320,15.49498114,.00094611,34.9903,15.8720,310.2508,49.7387,0,U,54045,999,20659,.78948721E-3,.4512E-3,0
EUTELSAT HOTBIRD 13F,2022-134A,2026-06-26T05:46:20.457984,1.00271546,.00020709,0.0445,295.2225,70.4577,8.2888,0,U,54048,999,1346,0,.98E-6,0
STARLINK-5195,2022-136A,2026-06-26T07:01:51.595392,15.08019358,.00011594,53.2014,216.9695,83.1575,276.9548,0,U,54051,999,20323,.34638388E-4,.254E-5,0
STARLINK-5189,2022-136B,2026-06-26T07:06:49.174272,15.08829909,.00011875,53.1577,176.2258,70.5785,289.5334,0,U,54052,999,20380,-.2846576E-5,-.333E-5,0
STARLINK-5176,2022-136C,2026-06-26T06:00:02.000160,15.25816613,.00013988,53.1590,216.1655,100.9764,110.7595,0,U,54053,999,585,.43343043E-1,.1225178E-1,0
STARLINK-5163,2022-136D,2026-06-26T06:12:55.231776,15.09848033,.0002519,53.1606,216.6872,52.9839,307.1383,0,U,54054,999,20323,.13769304E-2,.2231E-3,0
STARLINK-5158,2022-136E,2026-06-26T06:29:46.517856,15.08835060,.00007844,53.1578,216.6961,73.9191,286.1887,0,U,54055,999,20323,.36620451E-4,.295E-5,0
STARLINK-5226,2022-136F,2026-06-26T06:45:34.737984,15.08832405,.0001043,53.1581,216.0668,77.0256,283.0852,0,U,54056,999,20324,.5491094E-4,.586E-5,0
STARLINK-5167,2022-136H,2026-06-26T06:08:33.381024,15.08834256,.0001155,53.1581,216.6038,84.4127,275.6996,0,U,54058,999,20323,.4355179E-4,.405E-5,0
STARLINK-5173,2022-136J,2026-06-26T06:13:51.794400,15.08832706,.00011746,53.1580,216.6283,82.7802,277.3323,0,U,54059,999,20323,.5687161E-5,-.197E-5,0
STARLINK-5169,2022-136K,2026-06-26T06:49:34.146336,15.08833509,.00010804,53.1583,186.1258,79.9066,280.2047,0,U,54060,999,20366,-.988363E-6,-.304E-5,0
STARLINK-5209,2022-136L,2026-06-26T06:47:34.139328,15.08833885,.00013523,53.1584,181.0851,85.5073,274.6073,0,U,54061,999,20373,.1435924E-5,-.265E-5,0
STARLINK-5170,2022-136M,2026-06-26T06:03:15.018624,15.08834594,.00011555,53.1581,216.5813,85.6680,274.4443,0,U,54062,999,20323,.49378317E-4,.498E-5,0
STARLINK-5172,2022-136P,2026-06-26T06:00:02.000160,15.24643265,.00014842,53.1597,171.2146,105.5959,116.2826,0,U,54064,999,579,.25696232E-2,.64495E-3,0
STARLINK-5187,2022-136Q,2026-06-25T12:18:05.605632,15.08835446,.0001005,53.1590,219.7905,78.5423,281.5681,0,U,54065,999,20312,.28559E-4,.167E-5,0
STARLINK-5151,2022-136R,2026-06-26T06:19:37.057440,15.08017550,.00011968,53.2012,216.7890,74.8979,285.2145,0,U,54066,999,20323,-.18131168E-4,-.568E-5,0
STARLINK-5174,2022-136S,2026-06-26T07:12:06.619104,15.08834679,.00009801,53.1588,216.1719,82.2053,277.9050,0,U,54067,999,20324,.52642199E-4,.55E-5,0
STARLINK-5222,2022-136T,2026-06-26T05:42:01.751328,15.08835388,.00010429,53.1594,216.4919,79.5914,280.5194,0,U,54068,999,20323,.45344226E-4,.434E-5,0
STARLINK-5181,2022-136V,2026-06-26T07:01:29.794944,15.08834869,.0000914,53.1586,216.1269,78.1891,281.9202,0,U,54070,999,20324,.22139253E-4,.65E-6,0
STARLINK-5168,2022-136W,2026-06-26T06:56:11.626080,15.08832097,.00010631,53.1588,216.1035,86.6663,273.4450,0,U,54071,999,20324,.35677444E-4,.28E-5,0
STARLINK-5146,2022-136Y,2026-06-26T06:54:13.730688,15.08830967,.00011255,53.1587,211.1141,85.4956,274.6164,0,U,54073,999,20331,.10924799E-3,.1451E-4,0
STARLINK-5192,2022-136Z,2026-06-26T06:50:53.368224,15.08830461,.00011172,53.1583,216.0796,80.8338,279.2779,0,U,54074,999,20324,.36324376E-4,.29E-5,0
STARLINK-5212,2022-136AA,2026-06-26T06:00:02.000160,15.28242127,.00009798,53.1589,210.3990,105.8410,144.2506,0,U,54075,999,580,.40368734E-1,.122798E-1,0
STARLINK-5201,2022-136AB,2026-06-26T06:36:28.247616,15.08830169,.00011201,53.1583,216.7115,86.9460,273.1660,0,U,54076,999,20323,.14121862E-4,-.63E-6,0
STARLINK-5171,2022-136AC,2026-06-26T07:08:59.906112,15.08835995,.0001146,53.1587,192.0438,83.5388,276.5734,0,U,54077,999,20358,.45964156E-4,.444E-5,0
STARLINK-5175,2022-136AE,2026-06-26T06:36:25.372224,15.08833600,.00010973,53.1576,206.7330,110.2501,249.8608,0,U,54079,999,20337,.21528161E-3,.3139E-4,0
STARLINK-5210,2022-136AH,2026-06-26T06:31:06.906144,15.08831342,.00017066,53.1575,206.7089,95.8243,264.2943,0,U,54082,999,20337,.28439573E-4,.164E-5,0
STARLINK-5178,2022-136AJ,2026-06-26T06:15:11.738592,15.08831323,.00011265,53.1586,206.6424,79.9892,280.1227,0,U,54083,999,20337,.20063456E-4,.31E-6,0
STARLINK-5183,2022-136AK,2026-06-26T06:25:48.246528,15.08834278,.00011371,53.1584,206.6863,83.0615,277.0506,0,U,54084,999,20337,.43173186E-4,.399E-5,0
STARLINK-5166,2022-136AL,2026-06-26T06:11:16.050624,15.08831068,.00013378,53.1590,206.6254,76.1875,283.9265,0,U,54085,999,20337,.17464868E-4,-.1E-6,0
STARLINK-5211,2022-136AM,2026-06-26T06:14:32.143200,15.08830326,.00012469,53.1583,191.6791,78.3209,281.7922,0,U,54086,999,20358,.60480375E-4,.675E-5,0
STARLINK-5184,2022-136AN,2026-06-26T06:52:12.364608,15.08838327,.00011462,53.1580,206.0997,85.2102,274.9020,0,U,54087,999,20338,.24383182E-4,.1E-5,0
STARLINK-5153,2022-136AP,2026-06-26T06:20:30.216768,15.08840020,.00013181,53.1583,206.6646,67.3543,292.7588,0,U,54088,999,20337,.15742122E-4,-.37E-6,0
STARLINK-5143,2022-136AQ,2026-06-26T05:48:39.911904,15.08830835,.0001053,53.1577,206.5317,78.5133,281.5976,0,U,54089,999,20337,.20226903E-4,.34E-6,0
STARLINK-5177,2022-136AR,2026-06-26T05:53:58.316640,15.08830470,.00009503,53.1579,206.5497,79.7771,280.3327,0,U,54090,999,20337,.29304502E-4,.178E-5,0
STARLINK-5221,2022-136AS,2026-06-26T06:46:54.305472,15.08834710,.00010924,53.1589,206.0741,86.4699,273.6417,0,U,54091,999,20338,.15664057E-4,-.39E-6,0
STARLINK-5190,2022-136AT,2026-06-25T19:21:48.729600,15.85782496,.00020589,53.1722,356.7992,283.7073,76.3722,0,U,54092,999,20627,.66699368E-3,.168514E-2,0
STARLINK-5213,2022-136AU,2026-06-26T07:08:07.640160,15.08838735,.00011721,53.1580,206.1605,77.8967,282.2155,0,U,54093,999,20338,.49949215E-4,.507E-5,0
STARLINK-5193,2022-136AW,2026-06-26T06:57:30.567168,15.08846265,.00012501,53.1586,206.1150,87.5726,272.5409,0,U,54095,999,20338,.12582796E-3,.1716E-4,0
STARLINK-5188,2022-136AX,2026-06-26T07:13:26.067360,15.08833430,.0001066,53.1577,206.1834,82.0035,278.1077,0,U,54096,999,20338,.21321912E-4,.51E-6,0
STARLINK-5197,2022-136AY,2026-06-26T07:24:43.193664,15.08838696,.00011405,53.1583,181.2877,72.3609,287.7507,0,U,54097,999,20373,.18175153E-4,.1E-7,0
STARLINK-5217,2022-136AZ,2026-06-26T06:53:42.288864,15.08843662,.00011712,53.1581,206.7909,85.9526,274.1600,0,U,54098,999,20337,.10831325E-4,-.116E-5,0
STARLINK-5198,2022-136BA,2026-06-26T06:41:35.631168,15.08838306,.00010125,53.1581,206.0468,53.9872,306.1213,0,U,54099,999,20338,.39456695E-4,.34E-5,0
STARLINK-5185,2022-136BB,2026-06-26T07:02:49.133472,15.08836149,.0001065,53.1581,206.1378,85.1154,274.9959,0,U,54100,999,20338,.20233856E-4,.34E-6,0
STARLINK-5204,2022-136BC,2026-06-25T23:03:06.216768,15.10668958,.00028079,53.1591,192.6598,111.2138,248.9155,0,U,54101,999,20354,.10611249E-1,.18191E-2,0
STARLINK-5179,2022-136BD,2026-06-26T06:09:53.255232,15.08832201,.00010581,53.1577,206.6083,79.4866,280.6244,0,U,54102,999,20337,.72386487E-4,.864E-5,0
STARLINK-5200,2022-136BE,2026-06-26T07:05:28.897440,15.08838701,.00011634,53.1588,186.2040,83.0664,277.0460,0,U,54103,999,20366,.52942589E-4,.555E-5,0
STARLINK-5203,2022-136BF,2026-06-26T04:41:15.803520,15.14520661,.00016772,53.1607,171.3075,82.5854,277.5330,0,U,54104,999,20386,.12048777E-1,.231639E-2,0
COSMOS 2561,2022-137A,2026-06-26T04:33:20.484288,15.51917209,.0009435,96.9181,235.8541,4.0368,356.0960,0,U,54109,999,20774,.24519E-3,.1465E-3,0
ONEWEB-0490,2022-138A,2026-06-25T20:29:04.073568,13.19725047,.00017785,87.9180,303.2408,104.4194,255.7137,0,U,54113,999,17797,.24088648E-3,.109E-5,0
ONEWEB-0492,2022-138B,2026-06-25T21:05:27.343680,13.19726672,.00019708,87.9175,303.2366,107.4790,252.6558,0,U,54114,999,17798,-.51021602E-4,-.7E-7,0
ONEWEB-0495,2022-138C,2026-06-25T20:33:37.057824,13.19724715,.00015414,87.9176,303.2436,118.1460,241.9829,0,U,54115,999,17796,-.12750239E-3,-.38E-6,0
ONEWEB-0497,2022-138D,2026-06-25T20:51:48.778848,13.19725485,.00017536,87.9185,303.2338,104.3236,255.8091,0,U,54116,999,17795,-.22767058E-4,.4E-7,0
ONEWEB-0499,2022-138E,2026-06-25T20:27:54.713376,13.19726507,.00016862,87.9175,303.2455,102.4218,257.7104,0,U,54117,999,17796,-.41545065E-4,-.4E-7,0
ONEWEB-0500,2022-138F,2026-06-25T20:31:20.558784,13.19724972,.00019614,87.9179,303.2397,100.5113,259.6241,0,U,54118,999,17797,.12573888E-3,.63E-6,0
ONEWEB-0501,2022-138G,2026-06-26T06:20:26.778048,13.19724098,.00015869,87.9182,303.1582,110.3564,249.7739,0,U,54119,999,17800,-.61469609E-4,-.12E-6,0
ONEWEB-0502,2022-138H,2026-06-26T05:59:57.793344,13.19724444,.00016463,87.9183,303.1498,101.0392,259.0926,0,U,54120,999,17802,.14868913E-4,.19E-6,0
